{"type": "FeatureCollection", "features": [ {"type": "Feature", "properties": {"norad_id": 65304, "name": "DRAGON CRS-33", "group": "stations", "lat": 11.450123241275923, "lon": 166.73415474484943, "alt_km": 419.416927120923, "timestamp": "2025-12-09T16:56:35.375933+00:00", "meta": {"OBJECT_NAME": "DRAGON CRS-33", "OBJECT_ID": "2025-186A", "EPOCH": "2025-12-09T04:29:48.234912", "MEAN_MOTION": 15.4943846, "ECCENTRICITY": 0.00033664, "INCLINATION": 51.6308, "RA_OF_ASC_NODE": 160.0685, "ARG_OF_PERICENTER": 223.6321, "MEAN_ANOMALY": 136.4401, "EPHEMERIS_TYPE": 0, "CLASSIFICATION_TYPE": "U", "NORAD_CAT_ID": 65304, "ELEMENT_SET_NO": 999, "REV_AT_EPOCH": 11, "BSTAR": 0.0002526091, "MEAN_MOTION_DOT": 0.00013707, "MEAN_MOTION_DDOT": 0}, "tle": {"line1": "1 65304U 25186A   25343.18736383  .00013707  00000+0  25261-3 0  9992", "line2": "2 65304  51.6308 160.0685 0003366 223.6321 136.4401 15.49438460   111"}}, "geometry": {"type": "Point", "coordinates": [166.73415474484943, 11.450123241275923]}}, {"type": "Feature", "properties": {"norad_id": 65586, "name": "PROGRESS-MS 32", "group": "stations", "lat": 11.450123691095436, "lon": 166.7341551202091, "alt_km": 419.4169270653738, "timestamp": "2025-12-09T16:56:35.375942+00:00", "meta": {"OBJECT_NAME": "PROGRESS-MS 32", "OBJECT_ID": "2025-204A", "EPOCH": "2025-12-09T04:29:48.234912", "MEAN_MOTION": 15.4943846, "ECCENTRICITY": 0.00033664, "INCLINATION": 51.6308, "RA_OF_ASC_NODE": 160.0685, "ARG_OF_PERICENTER": 223.6321, "MEAN_ANOMALY": 136.4401, "EPHEMERIS_TYPE": 0, "CLASSIFICATION_TYPE": "U", "NORAD_CAT_ID": 65586, "ELEMENT_SET_NO": 999, "REV_AT_EPOCH": 27, "BSTAR": 0.0002526091, "MEAN_MOTION_DOT": 0.00013707, "MEAN_MOTION_DDOT": 0}, "tle": {"line1": "1 65586U 25204A   25343.18736383  .00013707  00000+0  25261-3 0  9995", "line2": "2 65586  51.6308 160.0685 0003366 223.6321 136.4401 15.49438460   270"}}, "geometry": {"type": "Point", "coordinates": [166.7341551202091, 11.450123691095436]}}, {"type": "Feature", "properties": {"norad_id": 65616, "name": "CYGNUS NG-23", "group": "stations", "lat": 11.45012419089416, "lon": 166.7341555372748, "alt_km": 419.41692700365456, "timestamp": "2025-12-09T16:56:35.375952+00:00", "meta": {"OBJECT_NAME": "CYGNUS NG-23", "OBJECT_ID": "2025-208A", "EPOCH": "2025-12-09T04:29:48.234912", "MEAN_MOTION": 15.4943846, "ECCENTRICITY": 0.00033664, "INCLINATION": 51.6308, "RA_OF_ASC_NODE": 160.0685, "ARG_OF_PERICENTER": 223.6321, "MEAN_ANOMALY": 136.4401, "EPHEMERIS_TYPE": 0, "CLASSIFICATION_TYPE": "U", "NORAD_CAT_ID": 65616, "ELEMENT_SET_NO": 999, "REV_AT_EPOCH": 22, "BSTAR": 0.0002526091, "MEAN_MOTION_DOT": 0.00013707, "MEAN_MOTION_DDOT": 0}, "tle": {"line1": "1 65616U 25208A   25343.18736383  .00013707  00000+0  25261-3 0  9993", "line2": "2 65616  51.6308 160.0685 0003366 223.6321 136.4401 15.49438460   229"}}, "geometry": {"type": "Point", "coordinates": [166.7341555372748, 11.45012419089416]}}, {"type": "Feature", "properties": {"norad_id": 65729, "name": "DRAGONFLY", "group": "stations", "lat": 45.24085755839668, "lon": -81.7664232061214, "alt_km": 354.4949420808407, "timestamp": "2025-12-09T16:56:35.375963+00:00", "meta": {"OBJECT_NAME": "DRAGONFLY", "OBJECT_ID": "1998-067XH", "EPOCH": "2025-12-09T11:52:26.095008", "MEAN_MOTION": 15.70499103, "ECCENTRICITY": 0.0006537, "INCLINATION": 51.6245, "RA_OF_ASC_NODE": 152.3636, "ARG_OF_PERICENTER": 255.9884, "MEAN_ANOMALY": 104.0387, "EPHEMERIS_TYPE": 0, "CLASSIFICATION_TYPE": "U", "NORAD_CAT_ID": 65729, "ELEMENT_SET_NO": 999, "REV_AT_EPOCH": 1265, "BSTAR": 0.0014915, "MEAN_MOTION_DOT": 0.00190953, "MEAN_MOTION_DDOT": 0}, "tle": {"line1": "1 65729U 98067XH  25343.49474647  .00190953  00000+0  14915-2 0  9999", "line2": "2 65729  51.6245 152.3636 0006537 255.9884 104.0387 15.70499103 12658"}}, "geometry": {"type": "Point", "coordinates": [-81.7664232061214, 45.24085755839668]}}, {"type": "Feature", "properties": {"norad_id": 65731, "name": "1998-067XK", "group": "stations", "lat": -18.426537492208034, "lon": -12.077807773792713, "alt_km": 372.9159749764576, "timestamp": "2025-12-09T16:56:35.375973+00:00", "meta": {"OBJECT_NAME": "1998-067XK", "OBJECT_ID": "1998-067XK", "EPOCH": "2025-12-09T11:28:42.047616", "MEAN_MOTION": 15.6489001, "ECCENTRICITY": 0.0005245, "INCLINATION": 51.6282, "RA_OF_ASC_NODE": 153.7695, "ARG_OF_PERICENTER": 225.0581, "MEAN_ANOMALY": 134.9989, "EPHEMERIS_TYPE": 0, "CLASSIFICATION_TYPE": "U", "NORAD_CAT_ID": 65731, "ELEMENT_SET_NO": 999, "REV_AT_EPOCH": 1263, "BSTAR": 0.0011288, "MEAN_MOTION_DOT": 0.00113689, "MEAN_MOTION_DDOT": 0}, "tle": {"line1": "1 65731U 98067XK  25343.47826444  .00113689  00000+0  11288-2 0  9997", "line2": "2 65731  51.6282 153.7695 0005245 225.0581 134.9989 15.64890010 12632"}}, "geometry": {"type": "Point", "coordinates": [-12.077807773792713, -18.426537492208034]}}, {"type": "Feature", "properties": {"norad_id": 65732, "name": "RSP-03", "group": "stations", "lat": 26.018212731376522, "lon": -50.778757474152094, "alt_km": 362.2552671724334, "timestamp": "2025-12-09T16:56:35.375987+00:00", "meta": {"OBJECT_NAME": "RSP-03", "OBJECT_ID": "1998-067XL", "EPOCH": "2025-12-09T11:43:58.717056", "MEAN_MOTION": 15.67520874, "ECCENTRICITY": 0.0006011, "INCLINATION": 51.626, "RA_OF_ASC_NODE": 153.082, "ARG_OF_PERICENTER": 229.3299, "MEAN_ANOMALY": 130.7176, "EPHEMERIS_TYPE": 0, "CLASSIFICATION_TYPE": "U", "NORAD_CAT_ID": 65732, "ELEMENT_SET_NO": 999, "REV_AT_EPOCH": 1265, "BSTAR": 0.001321, "MEAN_MOTION_DOT": 0.00148707, "MEAN_MOTION_DDOT": 0}, "tle": {"line1": "1 65732U 98067XL  25343.48887404  .00148707  00000+0  13210-2 0  9998", "line2": "2 65732  51.6260 153.0820 0006011 229.3299 130.7176 15.67520874 12652"}}, "geometry": {"type": "Point", "coordinates": [-50.778757474152094, 26.018212731376522]}}, {"type": "Feature", "properties": {"norad_id": 65733, "name": "GHS-01", "group": "stations", "lat": -0.799487643692559, "lon": 150.14704479765948, "alt_km": 351.79004753920344, "timestamp": "2025-12-09T16:56:35.375998+00:00", "meta": {"OBJECT_NAME": "GHS-01", "OBJECT_ID": "1998-067XM", "EPOCH": "2025-12-09T00:10:31.774944", "MEAN_MOTION": 15.72845555, "ECCENTRICITY": 0.00068773, "INCLINATION": 51.6283, "RA_OF_ASC_NODE": 154.3653, "ARG_OF_PERICENTER": 253.5848, "MEAN_ANOMALY": 106.4394, "EPHEMERIS_TYPE": 0, "CLASSIFICATION_TYPE": "U", "NORAD_CAT_ID": 65733, "ELEMENT_SET_NO": 999, "REV_AT_EPOCH": 1259, "BSTAR": 0.0015000957, "MEAN_MOTION_DOT": 0.0021266, "MEAN_MOTION_DDOT": 0}, "tle": {"line1": "1 65733U 98067XM  25343.00731221  .00212660  00000+0  15001-2 0  9992", "line2": "2 65733  51.6283 154.3653 0006877 253.5848 106.4394 15.72845555 12592"}}, "geometry": {"type": "Point", "coordinates": [150.14704479765948, -0.799487643692559]}}, {"type": "Feature", "properties": {"norad_id": 65941, "name": "YOTSUBA-KULOVER", "group": "stations", "lat": 24.635389995105783, "lon": 176.52434385688724, "alt_km": 389.1093987876029, "timestamp": "2025-12-09T16:56:35.376008+00:00", "meta": {"OBJECT_NAME": "YOTSUBA-KULOVER", "OBJECT_ID": "1998-067XN", "EPOCH": "2025-12-08T16:11:16.679040", "MEAN_MOTION": 15.58725095, "ECCENTRICITY": 0.00016918, "INCLINATION": 51.6278, "RA_OF_ASC_NODE": 160.3988, "ARG_OF_PERICENTER": 209.1564, "MEAN_ANOMALY": 150.9334, "EPHEMERIS_TYPE": 0, "CLASSIFICATION_TYPE": "U", "NORAD_CAT_ID": 65941, "ELEMENT_SET_NO": 999, "REV_AT_EPOCH": 922, "BSTAR": 0.00092611573, "MEAN_MOTION_DOT": 0.00072881, "MEAN_MOTION_DDOT": 0}, "tle": {"line1": "1 65941U 98067XN  25342.67449860  .00072881  00000+0  92612-3 0  9993", "line2": "2 65941  51.6278 160.3988 0001691 209.1564 150.9334 15.58725095  9220"}}, "geometry": {"type": "Point", "coordinates": [176.52434385688724, 24.635389995105783]}}, {"type": "Feature", "properties": {"norad_id": 65942, "name": "BOTAN", "group": "stations", "lat": -26.78583707896673, "lon": 131.0308156984377, "alt_km": 386.46765103089183, "timestamp": "2025-12-09T16:56:35.376019+00:00", "meta": {"OBJECT_NAME": "BOTAN", "OBJECT_ID": "1998-067XP", "EPOCH": "2025-12-08T18:03:33.084000", "MEAN_MOTION": 15.61774772, "ECCENTRICITY": 0.00036469, "INCLINATION": 51.6289, "RA_OF_ASC_NODE": 159.4206, "ARG_OF_PERICENTER": 205.1392, "MEAN_ANOMALY": 154.9425, "EPHEMERIS_TYPE": 0, "CLASSIFICATION_TYPE": "U", "NORAD_CAT_ID": 65942, "ELEMENT_SET_NO": 999, "REV_AT_EPOCH": 924, "BSTAR": 0.0011867098, "MEAN_MOTION_DOT": 0.00105605, "MEAN_MOTION_DDOT": 0}, "tle": {"line1": "1 65942U 98067XP  25342.75246625  .00105605  00000+0  11867-2 0  9990", "line2": "2 65942  51.6289 159.4206 0003646 205.1392 154.9425 15.61774772  9249"}}, "geometry": {"type": "Point", "coordinates": [131.0308156984377, -26.78583707896673]}}, {"type": "Feature", "properties": {"norad_id": 65943, "name": "E-KAGAKU-1", "group": "stations", "lat": 24.41021453704509, "lon": 176.2979241154893, "alt_km": 390.0352001258161, "timestamp": "2025-12-09T16:56:35.376029+00:00", "meta": {"OBJECT_NAME": "E-KAGAKU-1", "OBJECT_ID": "1998-067XQ", "EPOCH": "2025-12-08T17:43:35.861664", "MEAN_MOTION": 15.58651727, "ECCENTRICITY": 0.00029774, "INCLINATION": 51.6297, "RA_OF_ASC_NODE": 160.0822, "ARG_OF_PERICENTER": 178.8942, "MEAN_ANOMALY": 181.2057, "EPHEMERIS_TYPE": 0, "CLASSIFICATION_TYPE": "U", "NORAD_CAT_ID": 65943, "ELEMENT_SET_NO": 999, "REV_AT_EPOCH": 923, "BSTAR": 0.00085624806, "MEAN_MOTION_DOT": 0.00067115, "MEAN_MOTION_DDOT": 0}, "tle": {"line1": "1 65943U 98067XQ  25342.73860951  .00067115  00000+0  85625-3 0  9990", "line2": "2 65943  51.6297 160.0822 0002977 178.8942 181.2057 15.58651727  9237"}}, "geometry": {"type": "Point", "coordinates": [176.2979241154893, 24.41021453704509]}}]}